H1 CPF 01  gfz 2022 10 12 12  7852 terrasarx 
H2 0702601  6201 31698    2022 10 12 00 59 42 2022 10 17 00 00 42   120 1 1  0 0 0
H9
10 0 59864  20142.000000  0     647594.789    965852.440   6778857.793
10 0 59864  20262.000000  0    1551891.563   1033050.772   6620775.581
10 0 59864  20382.000000  0    2429992.778   1066624.706   6346345.965
10 0 59864  20502.000000  0    3265977.157   1066581.469   5960363.114
10 0 59864  20622.000000  0    4044654.510   1033785.871   5469576.849
10 0 59864  20742.000000  0    4751844.600    969931.156   4882579.814
10 0 59864  20862.000000  0    5374641.487    877490.487   4209664.786
10 0 59864  20982.000000  0    5901659.250    759650.553   3462648.785
10 0 59864  21102.000000  0    6323250.241    620228.566   2654666.168
10 0 59864  21222.000000  0    6631690.244    463573.338   1799936.788
10 0 59864  21342.000000  0    6821330.210    294453.803    913512.555
10 0 59864  21462.000000  0    6888705.665    117937.403     11005.350
10 0 59864  21582.000000  0    6832603.781    -60739.007   -891696.357
10 0 59864  21702.000000  0    6654083.813   -236302.110  -1778716.590
10 0 59864  21822.000000  0    6356451.693   -403575.274  -2634479.264
10 0 59864  21942.000000  0    5945189.881   -557609.066  -3443987.254
10 0 59864  22062.000000  0    5427845.152   -693805.345  -4193088.196
10 0 59864  22182.000000  0    4813876.941   -808031.489  -4868721.034
10 0 59864  22302.000000  0    4114472.235   -896722.119  -5459138.400
10 0 59864  22422.000000  0    3342331.842   -956967.523  -5954103.233
10 0 59864  22542.000000  0    2511431.762   -986586.665  -6345056.241
10 0 59864  22662.000000  0    1636766.078   -984181.872  -6625252.327
10 0 59864  22782.000000  0     734076.605   -949176.259  -6789865.858
10 0 59864  22902.000000  0    -180427.148   -881833.378  -6836065.456
10 0 59864  23022.000000  0   -1090353.260   -783257.615  -6763056.715
10 0 59864  23142.000000  0   -1979414.213   -655376.531  -6572094.848
10 0 59864  23262.000000  0   -2831712.249   -500904.420  -6266464.552
10 0 59864  23382.000000  0   -3632016.767   -323288.535  -5851428.973
10 0 59864  23502.000000  0   -4366033.934   -126638.058  -5334150.102
10 0 59864  23622.000000  0   -5020663.711     84363.142  -4723575.735
10 0 59864  23742.000000  0   -5584238.255    304557.914  -4030296.784
10 0 59864  23862.000000  0   -6046739.826    528431.215  -3266374.348
10 0 59864  23982.000000  0   -6399990.826    750236.321  -2445137.298
10 0 59864  24102.000000  0   -6637811.219    964129.680  -1580953.428
10 0 59864  24222.000000  0   -6756140.043   1164310.706   -688978.678
10 0 59864  24342.000000  0   -6753116.255   1345163.295    215114.349
10 0 59864  24462.000000  0   -6629113.184   1501394.967   1115418.549
10 0 59864  24582.000000  0   -6386730.430   1628171.227   1996079.740
10 0 59864  24702.000000  0   -6030740.813   1721240.996   2841585.180
10 0 59864  24822.000000  0   -5567992.855   1777049.256   3637045.749
10 0 59864  24942.000000  0   -5007271.236   1792834.023   4368464.435
10 0 59864  25062.000000  0   -4359120.637   1766705.783   5022985.126
10 0 59864  25182.000000  0   -3635638.321   1697707.707   5589117.934
10 0 59864  25302.000000  0   -2850240.530   1585855.410   6056938.655
10 0 59864  25422.000000  0   -2017405.852   1432155.853   6418259.461
10 0 59864  25542.000000  0   -1152401.431   1238603.914   6666765.866
10 0 59864  25662.000000  0    -270999.913   1008157.635   6798119.683
10 0 59864  25782.000000  0     610808.026    744692.938   6810029.309
10 0 59864  25902.000000  0    1477102.645    452938.154   6702287.029
10 0 59864  26022.000000  0    2312321.142    138389.762   6476772.488
10 0 59864  26142.000000  0    3101536.562   -192790.086   6137423.124
10 0 59864  26262.000000  0    3830726.462   -533892.737   5690170.214
10 0 59864  26382.000000  0    4487025.421   -877796.667   5142840.485
10 0 59864  26502.000000  0    5058957.510  -1217113.853   4505025.565
10 0 59864  26622.000000  0    5536644.875  -1544345.336   3787919.017
10 0 59864  26742.000000  0    5911987.565  -1852043.599   3004122.996
10 0 59864  26862.000000  0    6178810.308  -2132978.111   2167426.950
10 0 59864  26982.000000  0    6332971.740  -2380299.697   1292562.466
10 0 59864  27102.000000  0    6372434.296  -2587699.683    394938.632
10 0 59864  27222.000000  0    6297291.430  -2749560.099   -509637.473
10 0 59864  27342.000000  0    6109752.106  -2861090.368  -1405248.258
10 0 59864  27462.000000  0    5814081.020  -2918447.403  -2276155.068
10 0 59864  27582.000000  0    5416498.166  -2918835.471  -3107081.273
10 0 59864  27702.000000  0    4925041.217  -2860583.827  -3883484.229
10 0 59864  27822.000000  0    4349394.579  -2743201.477  -4591810.316
10 0 59864  27942.000000  0    3700688.825  -2567407.237  -5219729.292
10 0 59864  28062.000000  0    2991275.877  -2335134.264  -5756341.487
10 0 59864  28182.000000  0    2234488.667  -2049510.719  -6192356.240
10 0 59864  28302.000000  0    1444388.697  -1714817.419  -6520243.270
10 0 59864  28422.000000  0     635503.653  -1336421.475  -6734352.365
10 0 59864  28542.000000  0    -177436.962   -920689.594  -6831000.080
10 0 59864  28662.000000  0    -979764.703   -474882.036  -6808525.587
10 0 59864  28782.000000  0   -1757130.534     -7028.672  -6667316.133
10 0 59864  28902.000000  0   -2495755.738    474212.292  -6409800.235
10 0 59864  29022.000000  0   -3182670.353    959709.845  -6040410.119
10 0 59864  29142.000000  0   -3805937.651   1440028.714  -5565514.437
10 0 59864  29262.000000  0   -4354862.979   1905608.208  -4993319.885
10 0 59864  29382.000000  0   -4820181.945   2346950.125  -4333741.097
10 0 59864  29502.000000  0   -5194223.646   2754811.093  -3598238.621
10 0 59864  29622.000000  0   -5471045.617   3120394.493  -2799628.821
10 0 59864  29742.000000  0   -5646538.777   3435539.746  -1951866.878
10 0 59864  29862.000000  0   -5718497.570   3692904.108  -1069804.774
10 0 59864  29982.000000  0   -5686652.763   3886131.059   -168928.693
10 0 59864  30102.000000  0   -5552666.173   4010001.972    734918.259
10 0 59864  30222.000000  0   -5320085.647   4060565.872   1625824.057
10 0 59864  30342.000000  0   -4994260.234   4035243.131   2488097.100
10 0 59864  30462.000000  0   -4582220.034   3932901.839   3306550.358
10 0 59864  30582.000000  0   -4092523.397   3753904.847   4066776.453
10 0 59864  30702.000000  0   -3535074.724   3500124.656   4755405.606
10 0 59864  30822.000000  0   -2920918.918   3174928.373   5360342.328
10 0 59864  30942.000000  0   -2262016.105   2783132.042   5870976.579
10 0 59864  31062.000000  0   -1571003.406   2330926.073   6278366.125
10 0 59864  31182.000000  0    -860947.733   1825773.178   6575387.026
10 0 59864  31302.000000  0    -145097.531   1276282.100   6756850.345
10 0 59864  31422.000000  0     563363.970    692059.048   6819587.988
10 0 59864  31542.000000  0    1251561.003     83539.450   6762504.047
10 0 59864  31662.000000  0    1907157.997   -538197.575   6586593.021
10 0 59864  31782.000000  0    2518580.043  -1161630.447   6294924.260
10 0 59864  31902.000000  0    3075217.898  -1775007.649   5892592.511
10 0 59864  32022.000000  0    3567615.111  -2366569.522   5386634.604
10 0 59864  32142.000000  0    3987632.541  -2924774.495   4785911.942
10 0 59864  32262.000000  0    4328587.863  -3438526.563   4100961.237
10 0 59864  32382.000000  0    4585367.322  -3897399.619   3343813.799
10 0 59864  32502.000000  0    4754507.500  -4291853.290   2527785.857
10 0 59864  32622.000000  0    4834244.353  -4613434.601   1667242.129
10 0 59864  32742.000000  0    4824527.047  -4854960.510    777338.363
10 0 59864  32862.000000  0    4726996.959  -5010677.648   -126252.248
10 0 59864  32982.000000  0    4544932.184  -5076393.946  -1027623.093
10 0 59864  33102.000000  0    4283159.735  -5049579.080  -1910923.404
10 0 59864  33222.000000  0    3947935.657  -4929430.839  -2760644.980
10 0 59864  33342.000000  0    3546798.024  -4716906.221  -3561900.268
10 0 59864  33462.000000  0    3088396.387  -4414717.104  -4300685.444
10 0 59864  33582.000000  0    2582302.924  -4027291.317  -4964124.590
10 0 59864  33702.000000  0    2038809.011  -3560699.265  -5540688.606
10 0 59864  33822.000000  0    1468714.498  -3022551.224  -6020385.489
10 0 59864  33942.000000  0     883113.393  -2421868.226  -6394923.352
10 0 59864  34062.000000  0     293178.853  -1768926.792  -6657843.644
10 0 59864  34182.000000  0    -290047.170  -1075080.881  -6804621.690
10 0 59864  34302.000000  0    -855855.454   -352565.500  -6832735.402
10 0 59864  34422.000000  0   -1394061.027    385714.866  -6741703.345
10 0 59864  34542.000000  0   -1895182.415   1126410.746  -6533091.469
10 0 59864  34662.000000  0   -2350604.626   1855963.061  -6210489.034
10 0 59864  34782.000000  0   -2752724.979   2560845.155  -5779453.962
10 0 59864  34902.000000  0   -3095080.338   3227810.135  -5247427.675
10 0 59864  35022.000000  0   -3372453.481   3844139.230  -4623618.578
10 0 59864  35142.000000  0   -3580956.877   4397886.794  -3918853.353
10 0 59864  35262.000000  0   -3718089.877   4878115.929  -3145397.294
10 0 59864  35382.000000  0   -3782768.566   5275119.568  -2316748.212
10 0 59864  35502.000000  0   -3775329.427   5580623.842  -1447405.710
10 0 59864  35622.000000  0   -3697504.274   5787968.676   -552617.504
10 0 59864  35742.000000  0   -3552365.642   5892257.663    351892.642
10 0 59864  35862.000000  0   -3344246.243   5890474.393   1250207.555
10 0 59864  35982.000000  0   -3078630.934   5781562.408   2126507.043
10 0 59864  36102.000000  0   -2762023.742   5566463.812   2965357.027
10 0 59864  36222.000000  0   -2401795.505   5248115.944   3751988.732
10 0 59864  36342.000000  0   -2006016.446   4831408.985   4472563.467
10 0 59864  36462.000000  0   -1583277.591   4323105.015   5114418.459
10 0 59864  36582.000000  0   -1142504.782   3731720.867   5666289.713
99
